{"type": "FeatureCollection", "features": [{"type": "Feature", "properties": {"height": 11.343106269836426, "confidence": 0.984499990940094}, "geometry": {"type": "Polygon", "coordinates": [[[-80.42373407534795, 37.22852710770498], [-80.423621514655, 37.22859189819826], [-80.42358332438069, 37.22863096589175], [-80.42347653595718, 37.22869243375481], [-80.42344875138724, 37.22867521455147], [-80.42335628310819, 37.2287284344982], [-80.42339260807404, 37.228768443248235], [-80.42332563403674, 37.228836955836144], [-80.4231356660735, 37.22894630185659], [-80.42337508033287, 37.22920999442036], [-80.42345259038065, 37.229165379624], [-80.42368374741996, 37.22941997690264], [-80.42368314632616, 37.22942059179992], [-80.42380846233208, 37.229498254315395], [-80.42386267552008, 37.22955796474896], [-80.42395506485693, 37.22946345389994], [-80.4241206625017, 37.22936813615649], [-80.42421136440319, 37.22927535125845], [-80.42441453599713, 37.22915840570057], [-80.42429864930774, 37.22903076730657], [-80.42426087039334, 37.22905251289807], [-80.42412867375394, 37.22897058573756], [-80.42396193375953, 37.22878693663921], [-80.42396610562619, 37.228782668933995], [-80.42373407534795, 37.22852710770498]]]}}, {"type": "Feature", "properties": {"height": 9.06311321258545, "confidence": 0.9715999960899353}, "geometry": {"type": "Polygon", "coordinates": [[[-80.4197771024876, 37.22973337329223], [-80.41929032557111, 37.22920115254967], [-80.41925001197619, 37.2292245255443], [-80.41927474080349, 37.229251563052436], [-80.41925439462472, 37.229263360476], [-80.41926460502057, 37.22927452518182], [-80.41928914373054, 37.22926029678447], [-80.41930956452228, 37.229282626195385], [-80.41927557790244, 37.229302332812914], [-80.41929727635643, 37.22932605700842], [-80.41922366267838, 37.22936874073361], [-80.41963338054475, 37.229816707711635], [-80.4197771024876, 37.22973337329223]]]}}, {"type": "Feature", "properties": {"height": 13.301445960998535, "confidence": 0.9088000059127808}, "geometry": {"type": "Polygon", "coordinates": [[[-80.41955106748685, 37.228930783048156], [-80.41960539330519, 37.22899362341729], [-80.41977646511533, 37.228899863582015], [-80.41965997442833, 37.22876511493786], [-80.41960597630337, 37.22875723397524], [-80.41935958525362, 37.22847219546469], [-80.4190648793887, 37.228429199737484], [-80.4188396347671, 37.22855265097275], [-80.41874173719634, 37.22897790101524], [-80.41892076157528, 37.22900401935602], [-80.41897501730666, 37.22906678497432], [-80.41896825017861, 37.22909619130791], [-80.41901912985853, 37.229155051278376], [-80.41906209981927, 37.229161320265845], [-80.41908405180007, 37.22918671531775], [-80.41955106748685, 37.228930783048156]]]}}, {"type": "Feature", "properties": {"height": 14.821727752685547, "confidence": 0.9711999893188477}, "geometry": {"type": "Polygon", "coordinates": [[[-80.42632656427351, 37.232377331513874], [-80.42597591806562, 37.231979630678644], [-80.42597771484543, 37.231978626427484], [-80.42591843293259, 37.23191138902771], [-80.42586273275846, 37.23194252083555], [-80.42580195610694, 37.23187358807309], [-80.42572090254842, 37.23187870998718], [-80.42564732066076, 37.2319198362146], [-80.42565181516379, 37.2319649239345], [-80.42567037017585, 37.23198596897507], [-80.42560388932284, 37.23202312625587], [-80.42560095932309, 37.23201980306071], [-80.4256060879624, 37.232071252205245], [-80.42577244180634, 37.23225992977399], [-80.42561432518296, 37.232348303496124], [-80.42566856182664, 37.23240981820986], [-80.4254673224878, 37.23252229361466], [-80.42545151441387, 37.232504364271215], [-80.42540832325058, 37.232507093572494], [-80.4254847072882, 37.23259372746452], [-80.42546314593046, 37.23260577837936], [-80.42553015515584, 37.2326817793736], [-80.42553254852085, 37.232705788767966], [-80.42560192654715, 37.23278447631973], [-80.42576004317053, 37.23269610310884], [-80.42576508843969, 37.23270182538351], [-80.42602676603434, 37.23255557053066], [-80.42600091841581, 37.232557203871494], [-80.42609890870001, 37.23250243581458], [-80.42610017001734, 37.23250386638697], [-80.42632656427351, 37.232377331513874]]]}}, {"type": "Feature", "properties": {"height": 8.466973304748535, "confidence": 0.9848999977111816}, "geometry": {"type": "Polygon", "coordinates": [[[-80.42744172113642, 37.22922855026586], [-80.4273568760933, 37.2291687820247], [-80.42733617718045, 37.22918741025834], [-80.42722995514194, 37.22911257723911], [-80.42716579504281, 37.229170314346575], [-80.42716672704427, 37.229168523023716], [-80.4270941310299, 37.22923385665311], [-80.42711774149095, 37.22918846929677], [-80.4271631285413, 37.22914762267375], [-80.4271226863031, 37.2291191335193], [-80.4271295614736, 37.22910591931299], [-80.42704830537264, 37.22904867464594], [-80.42704405475014, 37.229056845808856], [-80.42688330004955, 37.22920151901383], [-80.42690135389391, 37.22921423786824], [-80.42667445148547, 37.22941844102402], [-80.42672679967559, 37.22945531706595], [-80.42670847922281, 37.22949053510051], [-80.42677592477185, 37.22953805000189], [-80.42669341881172, 37.22961229596083], [-80.4266795833189, 37.22963889234921], [-80.42680466086588, 37.22972700837913], [-80.42687634782483, 37.22966249839024], [-80.42693056376643, 37.229680381176735], [-80.42733286878462, 37.2293183235174], [-80.42730833392545, 37.22936547983205], [-80.42736184811534, 37.22931732301211], [-80.42737837298013, 37.22928555662575], [-80.42744172113642, 37.22922855026586]]]}}, {"type": "Feature", "properties": {"height": 11.049047470092773, "confidence": 0.9800000190734863}, "geometry": {"type": "Polygon", "coordinates": [[[-80.4186826125375, 37.231972613418634], [-80.41875568679701, 37.23204619863275], [-80.41893625392457, 37.23193251792844], [-80.41828507461197, 37.23127683991754], [-80.41809033606387, 37.231399443665055], [-80.41824118975336, 37.23155133979375], [-80.41789791011497, 37.231767442183354], [-80.41776794761165, 37.231636581997826], [-80.41739497378224, 37.231871398049655], [-80.41795219535832, 37.23243246514092], [-80.4186826125375, 37.231972613418634]]]}}, {"type": "Feature", "properties": {"height": 11.584819793701172, "confidence": 0.8871999979019165}, "geometry": {"type": "Polygon", "coordinates": [[[-80.42170449801175, 37.23024957611481], [-80.42169490397372, 37.23024468152486], [-80.42143175134939, 37.23023664543411], [-80.42135961561402, 37.230326273473366], [-80.42150359832779, 37.23033067037728], [-80.4214506462585, 37.23039646280254], [-80.42144561962537, 37.23050062331307], [-80.42155017779932, 37.23055397138047], [-80.42156375571379, 37.230568276363634], [-80.42142378597202, 37.23056399422029], [-80.42142193361238, 37.230602378239126], [-80.42149359923299, 37.23060457072947], [-80.42177961041644, 37.23090589643307], [-80.42182296460062, 37.23090722277683], [-80.42182461330721, 37.23087305893186], [-80.42201254784013, 37.23075998488343], [-80.42206850152773, 37.23078853369228], [-80.42217363730333, 37.23065790414829], [-80.42220157214618, 37.23064109507507], [-80.42220300620714, 37.23061132470162], [-80.42215476902192, 37.23060984896538], [-80.42196498282495, 37.23040988146281], [-80.42196905241565, 37.23032555243204], [-80.42191279725449, 37.23026628471717], [-80.4217852966929, 37.230262391137295], [-80.42178220798704, 37.23032651137688], [-80.42180345055858, 37.230348891509664], [-80.42176357422596, 37.23037288615907], [-80.42172787920225, 37.23033527615576], [-80.42175241876821, 37.230304785968855], [-80.42170304928027, 37.23027959640324], [-80.42170449801175, 37.23024957611481]]]}}, {"type": "Feature", "properties": {"height": 10.802412033081055, "confidence": 0.9679999947547913}, "geometry": {"type": "Polygon", "coordinates": [[[-80.421083470284, 37.23111898728837], [-80.42066325326321, 37.230695938158085], [-80.42052794490698, 37.23078114152606], [-80.42071586804671, 37.23097033127883], [-80.42064491366477, 37.23101501094316], [-80.42078063593236, 37.23115164761064], [-80.42058427380563, 37.231275295621884], [-80.4206808454191, 37.23137251755585], [-80.421083470284, 37.23111898728837]]]}}, {"type": "Feature", "properties": {"height": 12.221294403076172, "confidence": 0.9979000091552734}, "geometry": {"type": "Polygon", "coordinates": [[[-80.42498505695153, 37.230852286218635], [-80.42472710555772, 37.23063892995276], [-80.42426127425652, 37.23099599102758], [-80.42415870992633, 37.23091116461538], [-80.42396049966771, 37.23106308197966], [-80.42432099523185, 37.231361252539465], [-80.42498505695153, 37.230852286218635]]]}}, {"type": "Feature", "properties": {"height": 7.391506195068359, "confidence": 0.9790999889373779}, "geometry": {"type": "Polygon", "coordinates": [[[-80.41884028601872, 37.229541172616145], [-80.41884673142982, 37.22948283898757], [-80.41869452311651, 37.22932287775382], [-80.41878039635068, 37.22927108039603], [-80.41872230043124, 37.22921001951626], [-80.41861256599874, 37.22927620961353], [-80.41846021664573, 37.229116099717146], [-80.41850793222216, 37.22908731837207], [-80.418445959604, 37.22902218880056], [-80.41840914830154, 37.22904439286554], [-80.41832394095304, 37.2289548366224], [-80.41806433097001, 37.229111429749004], [-80.41805639108887, 37.229183289295264], [-80.4175353709272, 37.229497589155216], [-80.4173881327587, 37.229487267201065], [-80.41708543867382, 37.22966984673727], [-80.41730401480342, 37.22989955515161], [-80.41729173640447, 37.2300106790731], [-80.41729966260517, 37.23001900893715], [-80.41728731057965, 37.23002645940915], [-80.41728106338688, 37.23008299867336], [-80.41739160743101, 37.23019918301195], [-80.41739551451771, 37.230163822580025], [-80.41747108988758, 37.2302432539701], [-80.41768178207423, 37.23011615756854], [-80.41776570050085, 37.2302043495991], [-80.41811503491658, 37.22999361945563], [-80.41801949701552, 37.22989321593212], [-80.418362658792, 37.22968620848097], [-80.41840397005416, 37.22972962781919], [-80.41851409340778, 37.22966319739335], [-80.41855928025288, 37.22971068570787], [-80.41884028601872, 37.229541172616145]]]}}, {"type": "Feature", "properties": {"height": 13.301445960998535, "confidence": 0.9088000059127808}, "geometry": {"type": "Polygon", "coordinates": [[[-80.41955106748685, 37.228930783048156], [-80.41960539330519, 37.22899362341729], [-80.41977646511533, 37.228899863582015], [-80.41965997442833, 37.22876511493786], [-80.41960597630337, 37.22875723397524], [-80.41935958525362, 37.22847219546469], [-80.4190648793887, 37.228429199737484], [-80.4188396347671, 37.22855265097275], [-80.41874173719634, 37.22897790101524], [-80.41892076157528, 37.22900401935602], [-80.41897501730666, 37.22906678497432], [-80.41896825017861, 37.22909619130791], [-80.41901912985853, 37.229155051278376], [-80.41906209981927, 37.229161320265845], [-80.41908405180007, 37.22918671531775], [-80.41955106748685, 37.228930783048156]]]}}, {"type": "Feature", "properties": {"height": 16.327808380126953, "confidence": 0.9718999862670898}, "geometry": {"type": "Polygon", "coordinates": [[[-80.42391003518716, 37.231303343040686], [-80.42350102544194, 37.23161705268011], [-80.42350772628664, 37.23162259097908], [-80.42331156855168, 37.23177304308709], [-80.42343620426291, 37.23187605516809], [-80.42337834307146, 37.23192043432595], [-80.42334483758552, 37.23189274390479], [-80.42329696962913, 37.23192945831001], [-80.4234685112532, 37.232071238047894], [-80.42417245319567, 37.23153131845789], [-80.42406523968062, 37.2314427055184], [-80.42407219562867, 37.23143737031903], [-80.42391003518716, 37.231303343040686]]]}}, {"type": "Feature", "properties": {"height": 9.996576309204102, "confidence": 0.9269999861717224}, "geometry": {"type": "Polygon", "coordinates": [[[-80.42355137709073, 37.22973889623792], [-80.42346061486336, 37.229641861927746], [-80.42342536822323, 37.2296307133322], [-80.42344613096299, 37.22958909876737], [-80.42319218987447, 37.229317608341006], [-80.42303068088138, 37.2294133808272], [-80.42328893052233, 37.22968950315081], [-80.4222789918055, 37.23028837718406], [-80.42217027306327, 37.23017214631438], [-80.42216151331566, 37.230169375117015], [-80.42217846057302, 37.230135408132185], [-80.42222225964224, 37.23014926178827], [-80.42217201459117, 37.230095539834814], [-80.4223611665919, 37.22998337644927], [-80.42226993856714, 37.2298858444689], [-80.42188692699496, 37.23011296285674], [-80.42197413816034, 37.2302062001302], [-80.42201985173558, 37.23022066187882], [-80.42208218051458, 37.230287297361926], [-80.42206098272997, 37.23032977600559], [-80.42205320691828, 37.23032731608726], [-80.42202592323449, 37.230381999979095], [-80.42205412457315, 37.23041214987597], [-80.42228648471217, 37.23048564514487], [-80.42235400405853, 37.230557829589344], [-80.4227175807269, 37.23034223700867], [-80.42265282275777, 37.230321754099016], [-80.42291960677368, 37.230163571761], [-80.42288949706915, 37.230131378508666], [-80.42355137709073, 37.22973889623792]]]}}, {"type": "Feature", "properties": {"height": 8.820890426635742, "confidence": 0.9887999892234802}, "geometry": {"type": "Polygon", "coordinates": [[[-80.42533799908816, 37.22711429225147], [-80.42510786788125, 37.226932628954714], [-80.42523793852412, 37.226828161380034], [-80.42520551377918, 37.22677880506557], [-80.42525899945596, 37.22673584742401], [-80.42517513210173, 37.22666964308319], [-80.42483287880752, 37.22694452760396], [-80.42479944917389, 37.226958451482375], [-80.42475799961889, 37.22699174207702], [-80.42477549805493, 37.22701837778392], [-80.4248358936676, 37.227066053470864], [-80.42488830658354, 37.22702395461816], [-80.42492180612336, 37.22701000163502], [-80.42497246796795, 37.22704999359018], [-80.42494093659961, 37.22707531827177], [-80.42517062509023, 37.22725661894994], [-80.42524855418284, 37.2272241605908], [-80.4254484438319, 37.22738193977666], [-80.42566971766968, 37.22720420984332], [-80.42566485245055, 37.22720036956774], [-80.42562228857719, 37.2271355799829], [-80.42565740433179, 37.22710737649357], [-80.42562319507115, 37.227055304016005], [-80.42560634741804, 37.22706232127326], [-80.42557433634121, 37.22701359478786], [-80.42557990752313, 37.22701799231372], [-80.42554926008401, 37.22697134149783], [-80.42540714083594, 37.227085493868415], [-80.42533799908816, 37.22711429225147]]]}}, {"type": "Feature", "properties": {"height": 13.122459411621094, "confidence": 0.9761999845504761}, "geometry": {"type": "Polygon", "coordinates": [[[-80.42569341765392, 37.227609948315305], [-80.42542059464785, 37.22781798189274], [-80.42530009043558, 37.22771778953553], [-80.42528593047142, 37.22772097356282], [-80.42513861064246, 37.227833299887465], [-80.42533222866899, 37.22799428188619], [-80.42447598415762, 37.22864718201412], [-80.42428840512164, 37.22849122243634], [-80.42414569770305, 37.22860003879978], [-80.42465548417056, 37.229023891208705], [-80.42515067486575, 37.228646330558604], [-80.42509761025704, 37.22849671715885], [-80.4250293116714, 37.228548791976635], [-80.42494624121818, 37.22847971928367], [-80.42555148559347, 37.22801824406153], [-80.42569015532467, 37.22813353953739], [-80.42594151671042, 37.22794187174306], [-80.42608808587069, 37.22835511955406], [-80.42653251344149, 37.22872463186597], [-80.42656889111413, 37.228696895479736], [-80.42659765755405, 37.228720812830076], [-80.42674456224962, 37.22860879616238], [-80.42641750296333, 37.22833686762238], [-80.42659082374925, 37.228297904460845], [-80.42652922835367, 37.22812423804137], [-80.42638224363385, 37.228002029135844], [-80.42618776299939, 37.22815031337164], [-80.42612076814429, 37.22809461124501], [-80.42620191833709, 37.22803273723708], [-80.42569341765392, 37.227609948315305]]]}}, {"type": "Feature", "properties": {"height": 9.245917320251465, "confidence": 0.9882000088691711}, "geometry": {"type": "Polygon", "coordinates": [[[-80.42245131263101, 37.22899367932995], [-80.42188605482535, 37.229348872301], [-80.42202562347141, 37.22948968342998], [-80.4221634455342, 37.22940308002731], [-80.42214050868773, 37.22937993692906], [-80.42242911774967, 37.22919859903756], [-80.4224546547863, 37.22922436348373], [-80.42259349003682, 37.22913712311583], [-80.42245131263101, 37.22899367932995]]]}}, {"type": "Feature", "properties": {"height": 8.040343284606934, "confidence": 0.9866999983787537}, "geometry": {"type": "Polygon", "coordinates": [[[-80.41699826251867, 37.21929333275788], [-80.41681680019686, 37.21977037883681], [-80.41690162640637, 37.22048901939713], [-80.41706357489686, 37.220804912123974], [-80.4177348787511, 37.2205866405902], [-80.41769939280908, 37.22051742250072], [-80.41770282020813, 37.22050841233267], [-80.41767545565466, 37.22045503559336], [-80.41766968850644, 37.220406176990515], [-80.4176929363013, 37.220398619337224], [-80.4176798252479, 37.2202875439025], [-80.41769015760116, 37.2202841849403], [-80.41767101298463, 37.22012199350618], [-80.41768495091351, 37.22014918067047], [-80.41764162816025, 37.21978215312592], [-80.41766135538437, 37.21982063299359], [-80.41767842448844, 37.21977576020493], [-80.41767633490298, 37.21975805732623], [-80.41764596593373, 37.21975073187708], [-80.41764193301351, 37.21971656513456], [-80.41766608866882, 37.219653062490224], [-80.41762432331244, 37.219642988047994], [-80.41766593384166, 37.219533598259744], [-80.41766255952257, 37.219505011079015], [-80.41768146877746, 37.21949886377345], [-80.4176576411915, 37.21945238555086], [-80.41699826251867, 37.21929333275788]]]}}, {"type": "Feature", "properties": {"height": 5.729402542114258, "confidence": 0.9933000206947327}, "geometry": {"type": "Polygon", "coordinates": [[[-80.4184824830299, 37.22091208440359], [-80.41870482043846, 37.22079342359382], [-80.41864279315871, 37.22071973380434], [-80.41859723450104, 37.220744048362604], [-80.41854389488395, 37.22068067305524], [-80.4184876568245, 37.220710687201816], [-80.41841942681675, 37.22062962834054], [-80.41836915176711, 37.22065646005872], [-80.41823838492542, 37.22066217386409], [-80.41827587310587, 37.220642166481134], [-80.4183131644093, 37.22064053497366], [-80.41830811694935, 37.22056728427583], [-80.41824710271487, 37.220569950271845], [-80.41823402603069, 37.22057692928491], [-80.41786464700299, 37.220593069171144], [-80.41787007617162, 37.22067185934365], [-80.4178273984991, 37.22067372412733], [-80.41776095655881, 37.220649465756104], [-80.41771218058089, 37.22073417929537], [-80.4176456915742, 37.22070990375937], [-80.41760707725835, 37.220776968598734], [-80.41753922257598, 37.2207521944603], [-80.41751865667241, 37.22078790758883], [-80.41751912035093, 37.22079463665481], [-80.41749504474016, 37.220836450821125], [-80.41778560065052, 37.220942534294984], [-80.4184824830299, 37.22091208440359]]]}}, {"type": "Feature", "properties": {"height": 11.526509284973145, "confidence": 0.9789000153541565}, "geometry": {"type": "Polygon", "coordinates": [[[-80.41785145487395, 37.21894550958739], [-80.41792002150487, 37.21894359883492], [-80.4179519599414, 37.21893386723205], [-80.41796891801599, 37.21896915404992], [-80.41796698658995, 37.21892520266485], [-80.41752204514933, 37.218937601890225], [-80.41739325934506, 37.218976849936695], [-80.41738482261162, 37.21895929455863], [-80.41730864892652, 37.218982504578165], [-80.41734689116706, 37.21906209454209], [-80.41740131076645, 37.219060578028554], [-80.41749142854782, 37.219248097028476], [-80.41759918565336, 37.21921525769094], [-80.41767922753333, 37.219213027164635], [-80.41767785753227, 37.21918185162767], [-80.4177281461458, 37.21916652879597], [-80.41772759599017, 37.21915400953122], [-80.41788460551828, 37.219149634144586], [-80.41789358047846, 37.21914689899248], [-80.417887502215, 37.219008582728215], [-80.4180160907771, 37.219004999342125], [-80.41801562203966, 37.218994332795184], [-80.41790459029795, 37.21899742692464], [-80.41792773710834, 37.21899037412475], [-80.41787373493489, 37.21899187900724], [-80.41785145487395, 37.21894550958739]]]}}, {"type": "Feature", "properties": {"height": 9.832799911499023, "confidence": 0.9688000082969666}, "geometry": {"type": "Polygon", "coordinates": [[[-80.4181039320594, 37.21891179795794], [-80.41816226573023, 37.21892975097582], [-80.4181623889759, 37.21894568603146], [-80.41820870256508, 37.218945458881464], [-80.41819757587908, 37.218968385175636], [-80.41823127816136, 37.218978757525676], [-80.41826140644758, 37.218916690080746], [-80.41826208948088, 37.21900500287102], [-80.41831403852362, 37.21900474808153], [-80.41829845219489, 37.219036863345146], [-80.418267882444, 37.21903701327759], [-80.41837035143439, 37.21906854951339], [-80.4182637831974, 37.21906907218793], [-80.41830601554913, 37.219082072122696], [-80.41828958061389, 37.21911593588496], [-80.41827099479787, 37.21911602704089], [-80.41827111043182, 37.219130977902196], [-80.4183327988991, 37.219130675345205], [-80.41833289801393, 37.219143490366875], [-80.41833891373143, 37.219143460862206], [-80.41840816450733, 37.21916477756833], [-80.41840834391948, 37.219187974595584], [-80.4184755147024, 37.2191876451503], [-80.41858084706914, 37.21922006843505], [-80.41871639158293, 37.21894083294242], [-80.41867775840555, 37.21894102242302], [-80.41857528941516, 37.218909486133924], [-80.4181039320594, 37.21891179795794]]]}}, {"type": "Feature", "properties": {"height": 9.530549049377441, "confidence": 0.9889000058174133}, "geometry": {"type": "Polygon", "coordinates": [[[-80.41819799694929, 37.222696536872874], [-80.41824309176003, 37.22266881378846], [-80.41827701510505, 37.22268426752246], [-80.41847257321156, 37.22256404353185], [-80.41850595805829, 37.22257925197482], [-80.41850170880299, 37.22258516652537], [-80.41862159888883, 37.22270882149335], [-80.41867924762742, 37.22273508328252], [-80.41904438584463, 37.22311168647523], [-80.41915866143454, 37.22304143326364], [-80.4192092616783, 37.22309362220482], [-80.41964955880411, 37.22282294028857], [-80.41957300971735, 37.22274398749044], [-80.41966039693318, 37.22269026419024], [-80.41910247809251, 37.22211482328116], [-80.41910476128714, 37.2221116452763], [-80.41898779062066, 37.221991000452725], [-80.41890880602175, 37.222039558502836], [-80.41877127715404, 37.22189770957035], [-80.41872926406951, 37.22192353835624], [-80.41868515103648, 37.22187803960114], [-80.418233090247, 37.22215595694538], [-80.4183213163131, 37.22224695409285], [-80.41819320448796, 37.222325714232845], [-80.41817125408825, 37.222315714710746], [-80.41801463338118, 37.22241200134255], [-80.41800684872828, 37.22240397220447], [-80.41784215743695, 37.22250522031493], [-80.41792519373445, 37.22259086429549], [-80.41794258741541, 37.22258017111154], [-80.41819799694929, 37.222696536872874]]]}}, {"type": "Feature", "properties": {"height": 9.03260612487793, "confidence": 0.9786999821662903}, "geometry": {"type": "Polygon", "coordinates": [[[-80.42059360996876, 37.22575508803561], [-80.42022785763515, 37.22609112383733], [-80.42023569149855, 37.226103958651805], [-80.42026765981618, 37.226126019691876], [-80.42014158299575, 37.22624185266134], [-80.41985599427325, 37.22635236990537], [-80.42009989029933, 37.22652067957776], [-80.42015144555687, 37.22650072875899], [-80.42017920608015, 37.226519885938735], [-80.42026843633359, 37.22648535567182], [-80.42045820349772, 37.22661631147837], [-80.4203727550371, 37.22669481668651], [-80.42056116442018, 37.22682484564575], [-80.42061073421841, 37.22680566323617], [-80.42066325972415, 37.22684191318798], [-80.42079783538681, 37.22671827289197], [-80.42088054779549, 37.226775351481365], [-80.42082346571479, 37.22682779516401], [-80.42093681234888, 37.226906013847135], [-80.42096273613453, 37.22688219661584], [-80.42108787048208, 37.22683376545999], [-80.42131615680341, 37.226624029115804], [-80.42118177829397, 37.22653128883049], [-80.4211528072899, 37.22654250000619], [-80.42110836572657, 37.226511831462325], [-80.42131014424442, 37.22632644820216], [-80.42109728624332, 37.226179557134714], [-80.42112901255565, 37.22616727965287], [-80.42111388108782, 37.226156837573505], [-80.42116299822703, 37.226111711214706], [-80.42080976653779, 37.22586794889103], [-80.42077605733093, 37.225880993767205], [-80.42059360996876, 37.22575508803561]]]}}, {"type": "Feature", "properties": {"height": 14.783469200134277, "confidence": 0.9900000095367432}, "geometry": {"type": "Polygon", "coordinates": [[[-80.42596658568368, 37.22855542513848], [-80.4257687003209, 37.228708046595905], [-80.42580221092763, 37.228735592333145], [-80.42496777125102, 37.22937916030062], [-80.42520770719527, 37.229576385801934], [-80.42549277282276, 37.229356527954415], [-80.4254780281558, 37.22934440793108], [-80.42554583502837, 37.229292111544154], [-80.4255659413924, 37.2293086388597], [-80.42580118972579, 37.229127202173906], [-80.4258534662723, 37.22917017328072], [-80.42629767047828, 37.22882757713173], [-80.42596658568368, 37.22855542513848]]]}}, {"type": "Feature", "properties": {"height": 14.154952049255371, "confidence": 0.9617000222206116}, "geometry": {"type": "Polygon", "coordinates": [[[-80.42380100282524, 37.225729846648235], [-80.42387609745413, 37.225910852154236], [-80.42443956172887, 37.225762637783], [-80.42436446709998, 37.22558163192126], [-80.42380100282524, 37.225729846648235]]]}}]}